EUTELSAT 7A             
1 28187U 04008A   25317.49809865  .00000105  00000+0  00000+0 0  9999
2 28187   5.2828  74.5784 0001575 204.2955 174.1012  1.00272051 79193
EUTELSAT 174A           
1 28924U 05052A   25317.56023900  .00000011  00000+0  00000+0 0  9990
2 28924   3.6732  79.1922 0006532 156.6482 192.8020  1.00273478 50162
EUTELSAT HOTBIRD 13B    
1 29270U 06032A   25317.67498634  .00000156  00000+0  00000+0 0  9996
2 29270   1.1038  84.6012 0003560 144.7220  99.8145  1.00269617 45142
EUTELSAT HOTBIRD 13C    
1 33459U 08065A   25317.66354630 -.00000210  00000+0  00000+0 0  9996
2 33459   2.3952  81.7291 0001350 109.7467  76.0354  1.00055014 45187
EUTELSAT 36B            
1 36101U 09065A   25317.65965137  .00000112  00000+0  00000+0 0  9993
2 36101   0.0499  20.3450 0006301 216.8069 103.8423  1.00272140 58541
EUTELSAT KA-SAT 9A      
1 37258U 10069A   25317.67021965  .00000062  00000+0  00000+0 0  9991
2 37258   0.0628 314.4488 0002513 226.1068 122.8344  1.00269819 41848
EUTELSAT 7 WEST A       
1 37816U 11051A   25317.66701299 -.00000061  00000+0  00000+0 0  9997
2 37816   0.0674  11.0812 0006488 205.0450  69.7240  1.00268749 51718
EUTELSAT 16A            
1 37836U 11057A   25317.70603497  .00000104  00000+0  00000+0 0  9998
2 37836   0.0645   9.2370 0005808 229.7853  84.2338  1.00272244  5164
